STARLINK-31391          
1 59406U 24064J   26068.39356028  .00004301  00000+0  16572-3 0  9999
2 59406  42.9991  57.5725 0001106 299.6128  60.4613 15.27576019109188
FLOCK 4G-2              
1 62661U 25009BE  26068.66207492  .00013752  00000+0  51068-3 0  9995
2 62661  97.4044 151.2221 0003181 329.2677  30.8376 15.27675260121321
